[{"OBJECT_NAME":"STARLINK-31663","OBJECT_ID":"2024-076N","EPOCH":"2026-03-09T04:38:08.750976","MEAN_MOTION":15.27564134,"ECCENTRICITY":0.0001489,"INCLINATION":43.0028,"RA_OF_ASC_NODE":12.0711,"ARG_OF_PERICENTER":274.3528,"MEAN_ANOMALY":85.7154,"EPHEMERIS_TYPE":0,"CLASSIFICATION_TYPE":"U","NORAD_CAT_ID":59576,"ELEMENT_SET_NO":999,"REV_AT_EPOCH":10642,"BSTAR":-6.0810028e-5,"MEAN_MOTION_DOT":-1.934e-5,"MEAN_MOTION_DDOT":0},{"OBJECT_NAME":"FENGYUN 1C DEB","OBJECT_ID":"1999-025CCU","EPOCH":"2026-03-09T04:16:51.250080","MEAN_MOTION":14.7380712,"ECCENTRICITY":0.02770831,"INCLINATION":98.1363,"RA_OF_ASC_NODE":145.1449,"ARG_OF_PERICENTER":173.2574,"MEAN_ANOMALY":217.8544,"EPHEMERIS_TYPE":0,"CLASSIFICATION_TYPE":"U","NORAD_CAT_ID":31686,"ELEMENT_SET_NO":999,"REV_AT_EPOCH":99091,"BSTAR":0.001175879,"MEAN_MOTION_DOT":0.00014291,"MEAN_MOTION_DDOT":0}]
